{"type": "FeatureCollection", "features": [{"type": "Feature", "geometry": {"type": "Polygon", "coordinates": [[[-97.105, 32.83], [-97.07000000000001, 32.83], [-97.07000000000001, 32.864999999999995], [-97.105, 32.864999999999995], [-97.105, 32.83]]]}, "properties": {"ZONE_ID": "E01", "ZONE_NAME": "Elementary 1", "CURRENT_MS": "Chamblee MS", "CURRENT_HS": "Chamblee HS", "MS_CURRENT": 220, "MS_PROJECTED": 210, "HS_CURRENT": 300, "HS_PROJECTED": 290}}, {"type": "Feature", "geometry": {"type": "Polygon", "coordinates": [[[-97.07000000000001, 32.83], [-97.03500000000001, 32.83], [-97.03500000000001, 32.864999999999995], [-97.07000000000001, 32.864999999999995], [-97.07000000000001, 32.83]]]}, "properties": {"ZONE_ID": "E02", "ZONE_NAME": "Elementary 2", "CURRENT_MS": "Druid Hills MS", "CURRENT_HS": "Cross Keys HS", "MS_CURRENT": 257, "MS_PROJECTED": 251, "HS_CURRENT": 353, "HS_PROJECTED": 319}}, {"type": "Feature", "geometry": {"type": "Polygon", "coordinates": [[[-97.03500000000001, 32.83], [-97.00000000000001, 32.83], [-97.00000000000001, 32.864999999999995], [-97.03500000000001, 32.864999999999995], [-97.03500000000001, 32.83]]]}, "properties": {"ZONE_ID": "E03", "ZONE_NAME": "Elementary 3", "CURRENT_MS": "Henderson MS", "CURRENT_HS": "Druid Hills HS", "MS_CURRENT": 294, "MS_PROJECTED": 292, "HS_CURRENT": 406, "HS_PROJECTED": 348}}, {"type": "Feature", "geometry": {"type": "Polygon", "coordinates": [[[-97.0, 32.83], [-96.965, 32.83], [-96.965, 32.864999999999995], [-97.0, 32.864999999999995], [-97.0, 32.83]]]}, "properties": {"ZONE_ID": "E04", "ZONE_NAME": "Elementary 4", "CURRENT_MS": "Peachtree MS", "CURRENT_HS": "Dunwoody HS", "MS_CURRENT": 221, "MS_PROJECTED": 333, "HS_CURRENT": 329, "HS_PROJECTED": 377}}, {"type": "Feature", "geometry": {"type": "Polygon", "coordinates": [[[-96.965, 32.83], [-96.93, 32.83], [-96.93, 32.864999999999995], [-96.965, 32.864999999999995], [-96.965, 32.83]]]}, "properties": {"ZONE_ID": "E05", "ZONE_NAME": "Elementary 5", "CURRENT_MS": "Sequoyah MS", "CURRENT_HS": "Lakeside HS", "MS_CURRENT": 258, "MS_PROJECTED": 234, "HS_CURRENT": 382, "HS_PROJECTED": 406}}, {"type": "Feature", "geometry": {"type": "Polygon", "coordinates": [[[-96.93, 32.83], [-96.89500000000001, 32.83], [-96.89500000000001, 32.864999999999995], [-96.93, 32.864999999999995], [-96.93, 32.83]]]}, "properties": {"ZONE_ID": "E06", "ZONE_NAME": "Elementary 6", "CURRENT_MS": "Tucker MS", "CURRENT_HS": "Tucker HS", "MS_CURRENT": 295, "MS_PROJECTED": 275, "HS_CURRENT": 305, "HS_PROJECTED": 435}}, {"type": "Feature", "geometry": {"type": "Polygon", "coordinates": [[[-97.105, 32.864999999999995], [-97.07000000000001, 32.864999999999995], [-97.07000000000001, 32.89999999999999], [-97.105, 32.89999999999999], [-97.105, 32.864999999999995]]]}, "properties": {"ZONE_ID": "E07", "ZONE_NAME": "Elementary 7", "CURRENT_MS": "Chamblee MS", "CURRENT_HS": "Cross Keys HS", "MS_CURRENT": 222, "MS_PROJECTED": 316, "HS_CURRENT": 358, "HS_PROJECTED": 294}}, {"type": "Feature", "geometry": {"type": "Polygon", "coordinates": [[[-97.07000000000001, 32.864999999999995], [-97.03500000000001, 32.864999999999995], [-97.03500000000001, 32.89999999999999], [-97.07000000000001, 32.89999999999999], [-97.07000000000001, 32.864999999999995]]]}, "properties": {"ZONE_ID": "E08", "ZONE_NAME": "Elementary 8", "CURRENT_MS": "Druid Hills MS", "CURRENT_HS": "Druid Hills HS", "MS_CURRENT": 259, "MS_PROJECTED": 217, "HS_CURRENT": 411, "HS_PROJECTED": 323}}, {"type": "Feature", "geometry": {"type": "Polygon", "coordinates": [[[-97.03500000000001, 32.864999999999995], [-97.00000000000001, 32.864999999999995], [-97.00000000000001, 32.89999999999999], [-97.03500000000001, 32.89999999999999], [-97.03500000000001, 32.864999999999995]]]}, "properties": {"ZONE_ID": "E09", "ZONE_NAME": "Elementary 9", "CURRENT_MS": "Henderson MS", "CURRENT_HS": "Dunwoody HS", "MS_CURRENT": 296, "MS_PROJECTED": 258, "HS_CURRENT": 334, "HS_PROJECTED": 352}}, {"type": "Feature", "geometry": {"type": "Polygon", "coordinates": [[[-97.0, 32.864999999999995], [-96.965, 32.864999999999995], [-96.965, 32.89999999999999], [-97.0, 32.89999999999999], [-97.0, 32.864999999999995]]]}, "properties": {"ZONE_ID": "E10", "ZONE_NAME": "Elementary 10", "CURRENT_MS": "Peachtree MS", "CURRENT_HS": "Lakeside HS", "MS_CURRENT": 223, "MS_PROJECTED": 299, "HS_CURRENT": 387, "HS_PROJECTED": 381}}, {"type": "Feature", "geometry": {"type": "Polygon", "coordinates": [[[-96.965, 32.864999999999995], [-96.93, 32.864999999999995], [-96.93, 32.89999999999999], [-96.965, 32.89999999999999], [-96.965, 32.864999999999995]]]}, "properties": {"ZONE_ID": "E11", "ZONE_NAME": "Elementary 11", "CURRENT_MS": "Sequoyah MS", "CURRENT_HS": "Tucker HS", "MS_CURRENT": 260, "MS_PROJECTED": 340, "HS_CURRENT": 310, "HS_PROJECTED": 410}}, {"type": "Feature", "geometry": {"type": "Polygon", "coordinates": [[[-96.93, 32.864999999999995], [-96.89500000000001, 32.864999999999995], [-96.89500000000001, 32.89999999999999], [-96.93, 32.89999999999999], [-96.93, 32.864999999999995]]]}, "properties": {"ZONE_ID": "E12", "ZONE_NAME": "Elementary 12", "CURRENT_MS": "Tucker MS", "CURRENT_HS": "Chamblee HS", "MS_CURRENT": 297, "MS_PROJECTED": 241, "HS_CURRENT": 363, "HS_PROJECTED": 439}}, {"type": "Feature", "geometry": {"type": "Polygon", "coordinates": [[[-97.105, 32.9], [-97.07000000000001, 32.9], [-97.07000000000001, 32.934999999999995], [-97.105, 32.934999999999995], [-97.105, 32.9]]]}, "properties": {"ZONE_ID": "E13", "ZONE_NAME": "Elementary 13", "CURRENT_MS": "Chamblee MS", "CURRENT_HS": "Druid Hills HS", "MS_CURRENT": 224, "MS_PROJECTED": 282, "HS_CURRENT": 416, "HS_PROJECTED": 298}}, {"type": "Feature", "geometry": {"type": "Polygon", "coordinates": [[[-97.07000000000001, 32.9], [-97.03500000000001, 32.9], [-97.03500000000001, 32.934999999999995], [-97.07000000000001, 32.934999999999995], [-97.07000000000001, 32.9]]]}, "properties": {"ZONE_ID": "E14", "ZONE_NAME": "Elementary 14", "CURRENT_MS": "Druid Hills MS", "CURRENT_HS": "Dunwoody HS", "MS_CURRENT": 261, "MS_PROJECTED": 323, "HS_CURRENT": 339, "HS_PROJECTED": 327}}, {"type": "Feature", "geometry": {"type": "Polygon", "coordinates": [[[-97.03500000000001, 32.9], [-97.00000000000001, 32.9], [-97.00000000000001, 32.934999999999995], [-97.03500000000001, 32.934999999999995], [-97.03500000000001, 32.9]]]}, "properties": {"ZONE_ID": "E15", "ZONE_NAME": "Elementary 15", "CURRENT_MS": "Henderson MS", "CURRENT_HS": "Lakeside HS", "MS_CURRENT": 298, "MS_PROJECTED": 224, "HS_CURRENT": 392, "HS_PROJECTED": 356}}, {"type": "Feature", "geometry": {"type": "Polygon", "coordinates": [[[-97.0, 32.9], [-96.965, 32.9], [-96.965, 32.934999999999995], [-97.0, 32.934999999999995], [-97.0, 32.9]]]}, "properties": {"ZONE_ID": "E16", "ZONE_NAME": "Elementary 16", "CURRENT_MS": "Peachtree MS", "CURRENT_HS": "Tucker HS", "MS_CURRENT": 225, "MS_PROJECTED": 265, "HS_CURRENT": 315, "HS_PROJECTED": 385}}, {"type": "Feature", "geometry": {"type": "Polygon", "coordinates": [[[-96.965, 32.9], [-96.93, 32.9], [-96.93, 32.934999999999995], [-96.965, 32.934999999999995], [-96.965, 32.9]]]}, "properties": {"ZONE_ID": "E17", "ZONE_NAME": "Elementary 17", "CURRENT_MS": "Sequoyah MS", "CURRENT_HS": "Chamblee HS", "MS_CURRENT": 262, "MS_PROJECTED": 306, "HS_CURRENT": 368, "HS_PROJECTED": 414}}, {"type": "Feature", "geometry": {"type": "Polygon", "coordinates": [[[-96.93, 32.9], [-96.89500000000001, 32.9], [-96.89500000000001, 32.934999999999995], [-96.93, 32.934999999999995], [-96.93, 32.9]]]}, "properties": {"ZONE_ID": "E18", "ZONE_NAME": "Elementary 18", "CURRENT_MS": "Tucker MS", "CURRENT_HS": "Cross Keys HS", "MS_CURRENT": 299, "MS_PROJECTED": 347, "HS_CURRENT": 421, "HS_PROJECTED": 443}}, {"type": "Feature", "geometry": {"type": "Polygon", "coordinates": [[[-97.105, 32.934999999999995], [-97.07000000000001, 32.934999999999995], [-97.07000000000001, 32.96999999999999], [-97.105, 32.96999999999999], [-97.105, 32.934999999999995]]]}, "properties": {"ZONE_ID": "E19", "ZONE_NAME": "Elementary 19", "CURRENT_MS": "Chamblee MS", "CURRENT_HS": "Dunwoody HS", "MS_CURRENT": 226, "MS_PROJECTED": 248, "HS_CURRENT": 344, "HS_PROJECTED": 302}}, {"type": "Feature", "geometry": {"type": "Polygon", "coordinates": [[[-97.07000000000001, 32.934999999999995], [-97.03500000000001, 32.934999999999995], [-97.03500000000001, 32.96999999999999], [-97.07000000000001, 32.96999999999999], [-97.07000000000001, 32.934999999999995]]]}, "properties": {"ZONE_ID": "E20", "ZONE_NAME": "Elementary 20", "CURRENT_MS": "Druid Hills MS", "CURRENT_HS": "Lakeside HS", "MS_CURRENT": 263, "MS_PROJECTED": 289, "HS_CURRENT": 397, "HS_PROJECTED": 331}}, {"type": "Feature", "geometry": {"type": "Polygon", "coordinates": [[[-97.03500000000001, 32.934999999999995], [-97.00000000000001, 32.934999999999995], [-97.00000000000001, 32.96999999999999], [-97.03500000000001, 32.96999999999999], [-97.03500000000001, 32.934999999999995]]]}, "properties": {"ZONE_ID": "E21", "ZONE_NAME": "Elementary 21", "CURRENT_MS": "Henderson MS", "CURRENT_HS": "Tucker HS", "MS_CURRENT": 300, "MS_PROJECTED": 330, "HS_CURRENT": 320, "HS_PROJECTED": 360}}, {"type": "Feature", "geometry": {"type": "Polygon", "coordinates": [[[-97.0, 32.934999999999995], [-96.965, 32.934999999999995], [-96.965, 32.96999999999999], [-97.0, 32.96999999999999], [-97.0, 32.934999999999995]]]}, "properties": {"ZONE_ID": "E22", "ZONE_NAME": "Elementary 22", "CURRENT_MS": "Peachtree MS", "CURRENT_HS": "Chamblee HS", "MS_CURRENT": 227, "MS_PROJECTED": 231, "HS_CURRENT": 373, "HS_PROJECTED": 389}}, {"type": "Feature", "geometry": {"type": "Polygon", "coordinates": [[[-96.965, 32.934999999999995], [-96.93, 32.934999999999995], [-96.93, 32.96999999999999], [-96.965, 32.96999999999999], [-96.965, 32.934999999999995]]]}, "properties": {"ZONE_ID": "E23", "ZONE_NAME": "Elementary 23", "CURRENT_MS": "Sequoyah MS", "CURRENT_HS": "Cross Keys HS", "MS_CURRENT": 264, "MS_PROJECTED": 272, "HS_CURRENT": 426, "HS_PROJECTED": 418}}, {"type": "Feature", "geometry": {"type": "Polygon", "coordinates": [[[-96.93, 32.934999999999995], [-96.89500000000001, 32.934999999999995], [-96.89500000000001, 32.96999999999999], [-96.93, 32.96999999999999], [-96.93, 32.934999999999995]]]}, "properties": {"ZONE_ID": "E24", "ZONE_NAME": "Elementary 24", "CURRENT_MS": "Tucker MS", "CURRENT_HS": "Druid Hills HS", "MS_CURRENT": 301, "MS_PROJECTED": 313, "HS_CURRENT": 349, "HS_PROJECTED": 447}}]}